IRIDIUM 159             
1 43578U 18061K   23237.07410459  .00000201  00000+0  64780-4 0  9991
2 43578  86.3978 126.0113 0002065  85.4855 274.6577 14.34216173266163
IRIDIUM 180             
1 43922U 19002A   23237.07359777  .00000167  00000+0  52460-4 0  9998
2 43922  86.3926  62.8488 0001929  85.3289 274.8127 14.34216439241812
IRIDIUM 176             
1 43923U 19002B   23237.43881891  .00000428  00000+0  64039-4 0  9991
2 43923  86.6056  62.7316 0002377  88.7755 271.3734 14.72253716248186
IRIDIUM 168             
1 43924U 19002C   23236.99750280  .00000128  00000+0  38632-4 0  9996
2 43924  86.3929  62.9292 0001993  86.9629 273.1794 14.34218107241745
IRIDIUM 173             
1 43925U 19002D   23236.63596560  .00000095  00000+0  26892-4 0  9995
2 43925  86.3924  63.0111 0002036  91.0518 269.0911 14.34215329241676
IRIDIUM 169             
1 43926U 19002E   23236.56581021  .00000357  00000+0  11015-3 0  9995
2 43926  86.4184  94.6798 0005122 112.8601 247.3138 14.38613237242485
IRIDIUM 172             
1 43927U 19002F   23237.04822377  .00000106  00000+0  30760-4 0  9993
2 43927  86.3922  62.8431 0002031  91.2436 268.8993 14.34216033241742
IRIDIUM 175             
1 43928U 19002G   23237.02479293 -.00000389  00000+0 -65777-4 0  9998
2 43928  86.1483  52.8373 0002094  88.3681 271.7776 14.72243000248111
